[{"OBJECT_NAME":"HERMES-3","OBJECT_ID":"2025-052BR","EPOCH":"2026-03-09T22:30:01.073952","MEAN_MOTION":15.30039786,"ECCENTRICITY":0.00079928,"INCLINATION":97.3987,"RA_OF_ASC_NODE":324.6131,"ARG_OF_PERICENTER":112.9583,"MEAN_ANOMALY":247.2502,"EPHEMERIS_TYPE":0,"CLASSIFICATION_TYPE":"U","NORAD_CAT_ID":63835,"ELEMENT_SET_NO":999,"REV_AT_EPOCH":5486,"BSTAR":0.0006995793,"MEAN_MOTION_DOT":0.00020316,"MEAN_MOTION_DDOT":0},{"OBJECT_NAME":"STARLINK-35403","OBJECT_ID":"2025-235Z","EPOCH":"2026-03-09T19:20:42.203328","MEAN_MOTION":15.30204054,"ECCENTRICITY":0.00010172,"INCLINATION":53.1594,"RA_OF_ASC_NODE":244.413,"ARG_OF_PERICENTER":94.1706,"MEAN_ANOMALY":265.9411,"EPHEMERIS_TYPE":0,"CLASSIFICATION_TYPE":"U","NORAD_CAT_ID":66081,"ELEMENT_SET_NO":999,"REV_AT_EPOCH":2294,"BSTAR":0.0007062888,"MEAN_MOTION_DOT":0.0002062,"MEAN_MOTION_DDOT":0}]
